start=new Date('2021-12-20T00:00:00.000Z').valueOf();
sats=[{"COUNTRY_CODE":"US","BSTAR":"0.00012860000000","SITE":"AFETR","TLE_LINE1":"1 48588U 21041AM  21353.88233527  .00001634  00000-0  12860-3 0  9997","TLE_LINE2":"2 48588  53.0533 208.5817 0002601  78.2478 281.8803 15.06400161 32964","CENTER_NAME":"EARTH","GP_ID":"192042302","OBJECT_NAME":"STARLINK-2244","PERIOD":"95.592","DECAY_DATE":null,"MEAN_MOTION_DOT":"0.00001634","ELEMENT_SET_NO":"999","MEAN_MOTION":"15.06400161","RA_OF_ASC_NODE":"208.5817","FILE":"3244825","REF_FRAME":"TEME","NORAD_CAT_ID":"48588","OBJECT_TYPE":"PAYLOAD","APOAPSIS":"549.014","MEAN_ANOMALY":"281.8803","MEAN_ELEMENT_THEORY":"SGP4","LAUNCH_DATE":"2021-05-15","INCLINATION":"53.0533","PERIAPSIS":"545.412","CLASSIFICATION_TYPE":"U","SEMIMAJOR_AXIS":"6925.348","EPOCH":"2021-12-19T21:10:33.767328","MEAN_MOTION_DDOT":"0.0000000000000","EPHEMERIS_TYPE":"0","REV_AT_EPOCH":"3296","TIME_SYSTEM":"UTC","ECCENTRICITY":"0.00026010","OBJECT_ID":"2021-041AM","ARG_OF_PERICENTER":"78.2478","RCS_SIZE":"LARGE"},{"MEAN_ANOMALY":"282.4140","LAUNCH_DATE":"2021-05-15","MEAN_ELEMENT_THEORY":"SGP4","INCLINATION":"53.0542","NORAD_CAT_ID":"48589","REF_FRAME":"TEME","APOAPSIS":"549.153","OBJECT_TYPE":"PAYLOAD","REV_AT_EPOCH":"3296","EPHEMERIS_TYPE":"0","RCS_SIZE":"LARGE","ECCENTRICITY":"0.00028220","OBJECT_ID":"2021-041AN","TIME_SYSTEM":"UTC","ARG_OF_PERICENTER":"77.7165","SEMIMAJOR_AXIS":"6925.334","PERIAPSIS":"545.244","CLASSIFICATION_TYPE":"U","MEAN_MOTION_DDOT":"0.0000000000000","EPOCH":"2021-12-19T21:05:14.954784","TLE_LINE1":"1 48589U 21041AN  21353.87864531  .00001485  00000-0  11861-3 0  9996","TLE_LINE2":"2 48589  53.0542 208.5910 0002822  77.7165 282.4140 15.06404820 32968","BSTAR":"0.00011861000000","COUNTRY_CODE":"US","SITE":"AFETR","MEAN_MOTION":"15.06404820","ELEMENT_SET_NO":"999","FILE":"3244825","RA_OF_ASC_NODE":"208.5910","PERIOD":"95.592","OBJECT_NAME":"STARLINK-2245","GP_ID":"192042505","CENTER_NAME":"EARTH","DECAY_DATE":null,"MEAN_MOTION_DOT":"0.00001485"},{"MEAN_MOTION_DOT":"0.00001835","DECAY_DATE":null,"PERIOD":"95.592","OBJECT_NAME":"STARLINK-2246","CENTER_NAME":"EARTH","GP_ID":"192043112","FILE":"3244825","RA_OF_ASC_NODE":"218.4754","MEAN_MOTION":"15.06400662","ELEMENT_SET_NO":"999","SITE":"AFETR","BSTAR":"0.00014208000000","COUNTRY_CODE":"US","TLE_LINE2":"2 48590  53.0550 218.4754 0002482  73.8230 286.3032 15.06400662 32825","TLE_LINE1":"1 48590U 21041AP  21353.90353089  .00001835  00000-0  14208-3 0  9990","MEAN_MOTION_DDOT":"0.0000000000000","EPOCH":"2021-12-19T21:41:05.068896","SEMIMAJOR_AXIS":"6925.347","PERIAPSIS":"545.493","CLASSIFICATION_TYPE":"U","RCS_SIZE":"LARGE","ECCENTRICITY":"0.00024820","TIME_SYSTEM":"UTC","OBJECT_ID":"2021-041AP","ARG_OF_PERICENTER":"73.8230","REV_AT_EPOCH":"3282","EPHEMERIS_TYPE":"0","APOAPSIS":"548.930","OBJECT_TYPE":"PAYLOAD","NORAD_CAT_ID":"48590","REF_FRAME":"TEME","LAUNCH_DATE":"2021-05-15","INCLINATION":"53.0550","MEAN_ELEMENT_THEORY":"SGP4","MEAN_ANOMALY":"286.3032"},{"MEAN_ANOMALY":"280.7536","INCLINATION":"53.0570","LAUNCH_DATE":"2021-05-15","MEAN_ELEMENT_THEORY":"SGP4","REF_FRAME":"TEME","NORAD_CAT_ID":"48591","OBJECT_TYPE":"PAYLOAD","APOAPSIS":"549.375","EPHEMERIS_TYPE":"0","REV_AT_EPOCH":"3386","OBJECT_ID":"2021-041AQ","ECCENTRICITY":"0.00028070","TIME_SYSTEM":"UTC","ARG_OF_PERICENTER":"79.3769","RCS_SIZE":"LARGE","PERIAPSIS":"545.487","CLASSIFICATION_TYPE":"U","SEMIMAJOR_AXIS":"6925.566","EPOCH":"2021-12-19T20:42:42.579648","MEAN_MOTION_DDOT":"0.0000000000000","TLE_LINE1":"1 48591U 21041AQ  21353.86299282  .00018072  00000-0  12313-2 0  9995","TLE_LINE2":"2 48591  53.0570 208.5812 0002807  79.3769 280.7536 15.06329057 33862","COUNTRY_CODE":"US","BSTAR":"0.00123130000000","SITE":"AFETR","ELEMENT_SET_NO":"999","MEAN_MOTION":"15.06329057","RA_OF_ASC_NODE":"208.5812","FILE":"3244825","GP_ID":"192042910","CENTER_NAME":"EARTH","OBJECT_NAME":"STARLINK-2248","PERIOD":"95.597","DECAY_DATE":null,"MEAN_MOTION_DOT":"0.00018072"},{"INCLINATION":"53.0554","LAUNCH_DATE":"2021-05-15","MEAN_ELEMENT_THEORY":"SGP4","MEAN_ANOMALY":"283.3975","OBJECT_TYPE":"PAYLOAD","APOAPSIS":"549.005","REF_FRAME":"TEME","NORAD_CAT_ID":"48592","ARG_OF_PERICENTER":"76.7303","TIME_SYSTEM":"UTC","ECCENTRICITY":"0.00025950","OBJECT_ID":"2021-041AR","RCS_SIZE":"MEDIUM","EPHEMERIS_TYPE":"0","REV_AT_EPOCH":"3282","EPOCH":"2021-12-19T20:53:18.860352","MEAN_MOTION_DDOT":"0.0000000000000","PERIAPSIS":"545.411","CLASSIFICATION_TYPE":"U","SEMIMAJOR_AXIS":"6925.343","TLE_LINE2":"2 48592  53.0554 218.6349 0002595  76.7303 283.3975 15.06401743 32825","TLE_LINE1":"1 48592U 21041AR  21353.87035718  .00001883  00000-0  14531-3 0  9996","SITE":"AFETR","COUNTRY_CODE":"US","BSTAR":"0.00014531000000","RA_OF_ASC_NODE":"218.6349","FILE":"3244825","ELEMENT_SET_NO":"999","MEAN_MOTION":"15.06401743","MEAN_MOTION_DOT":"0.00001883","DECAY_DATE":null,"GP_ID":"192041898","CENTER_NAME":"EARTH","OBJECT_NAME":"STARLINK-2249","PERIOD":"95.592"},{"SITE":"AFETR","COUNTRY_CODE":"US","BSTAR":"0.00015653000000","TLE_LINE2":"2 48593  53.0548 218.5919 0002391  76.4501 283.6755 15.06402128 32829","TLE_LINE1":"1 48593U 21041AS  21353.87772663  .00002051  00000-0  15653-3 0  9998","DECAY_DATE":null,"MEAN_MOTION_DOT":"0.00002051","PERIOD":"95.592","OBJECT_NAME":"STARLINK-2250","GP_ID":"192042100","CENTER_NAME":"EARTH","FILE":"3244825","RA_OF_ASC_NODE":"218.5919","MEAN_MOTION":"15.06402128","ELEMENT_SET_NO":"999","APOAPSIS":"548.863","OBJECT_TYPE":"PAYLOAD","NORAD_CAT_ID":"48593","REF_FRAME":"TEME","LAUNCH_DATE":"2021-05-15","MEAN_ELEMENT_THEORY":"SGP4","INCLINATION":"53.0548","MEAN_ANOMALY":"283.6755","MEAN_MOTION_DDOT":"0.0000000000000","EPOCH":"2021-12-19T21:03:55.580832","SEMIMAJOR_AXIS":"6925.342","PERIAPSIS":"545.551","CLASSIFICATION_TYPE":"U","RCS_SIZE":"LARGE","ECCENTRICITY":"0.00023910","OBJECT_ID":"2021-041AS","ARG_OF_PERICENTER":"76.4501","TIME_SYSTEM":"UTC","REV_AT_EPOCH":"3282","EPHEMERIS_TYPE":"0"},{"GP_ID":"192042708","CENTER_NAME":"EARTH","OBJECT_NAME":"STARLINK-2251","PERIOD":"95.644","MEAN_MOTION_DOT":"-0.00000489","DECAY_DATE":null,"ELEMENT_SET_NO":"999","MEAN_MOTION":"15.05581262","RA_OF_ASC_NODE":"188.1962","FILE":"3244825","BSTAR":"-0.00001434800000","COUNTRY_CODE":"US","SITE":"AFETR","TLE_LINE1":"1 48594U 21041AT  21353.84901249 -.00000489  00000-0 -14348-4 0  9996","TLE_LINE2":"2 48594  53.0544 188.1962 0002833  87.3006 272.8307 15.05581262 33255","CLASSIFICATION_TYPE":"U","PERIAPSIS":"547.761","SEMIMAJOR_AXIS":"6927.859","EPOCH":"2021-12-19T20:22:34.679136","MEAN_MOTION_DDOT":"0.0000000000000","EPHEMERIS_TYPE":"0","REV_AT_EPOCH":"3325","OBJECT_ID":"2021-041AT","ECCENTRICITY":"0.00028330","ARG_OF_PERICENTER":"87.3006","TIME_SYSTEM":"UTC","RCS_SIZE":"LARGE","REF_FRAME":"TEME","NORAD_CAT_ID":"48594","OBJECT_TYPE":"PAYLOAD","APOAPSIS":"551.687","MEAN_ANOMALY":"272.8307","LAUNCH_DATE":"2021-05-15","INCLINATION":"53.0544","MEAN_ELEMENT_THEORY":"SGP4"},{"FILE":"3244825","RA_OF_ASC_NODE":"218.3799","ELEMENT_SET_NO":"999","MEAN_MOTION":"15.06407397","MEAN_MOTION_DOT":"0.00001267","DECAY_DATE":null,"CENTER_NAME":"EARTH","GP_ID":"192043315","PERIOD":"95.592","OBJECT_NAME":"STARLINK-2252","TLE_LINE2":"2 48595  53.0553 218.3799 0002320  75.5142 284.6104 15.06407397 34109","TLE_LINE1":"1 48595U 21041AU  21353.92564861  .00001267  00000-0  10392-3 0  9998","SITE":"AFETR","BSTAR":"0.00010392000000","COUNTRY_CODE":"US","OBJECT_ID":"2021-041AU","ECCENTRICITY":"0.00023200","TIME_SYSTEM":"UTC","ARG_OF_PERICENTER":"75.5142","RCS_SIZE":"LARGE","EPHEMERIS_TYPE":"0","REV_AT_EPOCH":"3410","EPOCH":"2021-12-19T22:12:56.039904","MEAN_MOTION_DDOT":"0.0000000000000","PERIAPSIS":"545.584","CLASSIFICATION_TYPE":"U","SEMIMAJOR_AXIS":"6925.326","LAUNCH_DATE":"2021-05-15","MEAN_ELEMENT_THEORY":"SGP4","INCLINATION":"53.0553","MEAN_ANOMALY":"284.6104","APOAPSIS":"548.798","OBJECT_TYPE":"PAYLOAD","NORAD_CAT_ID":"48595","REF_FRAME":"TEME"},{"SEMIMAJOR_AXIS":"6925.322","PERIAPSIS":"545.389","CLASSIFICATION_TYPE":"U","MEAN_MOTION_DDOT":"0.0000000000000","EPOCH":"2021-12-19T21:09:13.512960","REV_AT_EPOCH":"3328","EPHEMERIS_TYPE":"0","RCS_SIZE":"LARGE","OBJECT_ID":"2021-041AV","TIME_SYSTEM":"UTC","ECCENTRICITY":"0.00025950","ARG_OF_PERICENTER":"68.9443","REF_FRAME":"TEME","NORAD_CAT_ID":"48596","OBJECT_TYPE":"PAYLOAD","APOAPSIS":"548.984","MEAN_ANOMALY":"291.1823","INCLINATION":"53.0548","LAUNCH_DATE":"2021-05-15","MEAN_ELEMENT_THEORY":"SGP4","OBJECT_NAME":"STARLINK-2253","PERIOD":"95.592","CENTER_NAME":"EARTH","GP_ID":"192042303","DECAY_DATE":null,"MEAN_MOTION_DOT":"0.00002005","MEAN_MOTION":"15.06408794","ELEMENT_SET_NO":"999","RA_OF_ASC_NODE":"218.5762","FILE":"3244825","BSTAR":"0.00015343000000","COUNTRY_CODE":"US","SITE":"AFETR","TLE_LINE1":"1 48596U 21041AV  21353.88140640  .00002005  00000-0  15343-3 0  9991","TLE_LINE2":"2 48596  53.0548 218.5762 0002595  68.9443 291.1823 15.06408794 33281"},{"OBJECT_TYPE":"PAYLOAD","APOAPSIS":"548.966","REF_FRAME":"TEME","NORAD_CAT_ID":"48597","LAUNCH_DATE":"2021-05-15","MEAN_ELEMENT_THEORY":"SGP4","INCLINATION":"53.0554","MEAN_ANOMALY":"283.3469","EPOCH":"2021-12-19T21:19:52.445280","MEAN_MOTION_DDOT":"0.0000000000000","PERIAPSIS":"545.502","CLASSIFICATION_TYPE":"U","SEMIMAJOR_AXIS":"6925.369","OBJECT_ID":"2021-041AW","ECCENTRICITY":"0.00025010","TIME_SYSTEM":"UTC","ARG_OF_PERICENTER":"76.7799","RCS_SIZE":"LARGE","EPHEMERIS_TYPE":"0","REV_AT_EPOCH":"3409","SITE":"AFETR","COUNTRY_CODE":"US","BSTAR":"0.00000794420000","TLE_LINE2":"2 48597  53.0554 218.5513 0002501  76.7799 283.3469 15.06393316 34093","TLE_LINE1":"1 48597U 21041AW  21353.88880145 -.00000164  00000-0  79442-5 0  9990","DECAY_DATE":null,"MEAN_MOTION_DOT":"-0.00000164","GP_ID":"192042506","CENTER_NAME":"EARTH","OBJECT_NAME":"STARLINK-2255","PERIOD":"95.593","RA_OF_ASC_NODE":"218.5513","FILE":"3244825","ELEMENT_SET_NO":"999","MEAN_MOTION":"15.06393316"}];
